[
  {
    "OBJECT_NAME": "STARLINK-3099",
    "OBJECT_ID": "21104AQ",
    "EPOCH": "2025-11-11T04:09:49.041792",
    "MEAN_MOTION": 15.08834032,
    "ECCENTRICITY": 0.000169,
    "INCLINATION": 53.2198,
    "RA_OF_ASC_NODE": 21.1573,
    "ARG_OF_PERICENTER": 73.0293,
    "MEAN_ANOMALY": 287.0885,
    "EPHEMERIS_TYPE": 0,
    "CLASSIFICATION_TYPE": "U",
    "NORAD_CAT_ID": 49446,
    "ELEMENT_SET_NO": 999,
    "REV_AT_EPOCH": 22102,
    "BSTAR": 0.0,
    "MEAN_MOTION_DOT": -7.5e-06,
    "MEAN_MOTION_DDOT": 0.0,
    "TLE_LINE1": "1 49446U 21104AQ  25315.17348428 -.00000750  00000+0 -29023-4 0  9991",
    "TLE_LINE2": "2 49446  53.2198  21.1573 0001690  73.0293 287.0885 15.08834032221025",
    "COMMENT": "Grouped by shell and plane from TLE"
  },
  {
    "OBJECT_NAME": "STARLINK-3260",
    "OBJECT_ID": "21125BB",
    "EPOCH": "2025-11-11T05:35:58.461792",
    "MEAN_MOTION": 15.08840857,
    "ECCENTRICITY": 0.0001438,
    "INCLINATION": 53.2188,
    "RA_OF_ASC_NODE": 20.8926,
    "ARG_OF_PERICENTER": 94.9143,
    "MEAN_ANOMALY": 265.2013,
    "EPHEMERIS_TYPE": 0,
    "CLASSIFICATION_TYPE": "U",
    "NORAD_CAT_ID": 50205,
    "ELEMENT_SET_NO": 999,
    "REV_AT_EPOCH": 21927,
    "BSTAR": 7.6024e-05,
    "MEAN_MOTION_DOT": 9.22e-06,
    "MEAN_MOTION_DDOT": 0.0,
    "TLE_LINE1": "1 50205U 21125BB  25315.23331553  .00000922  00000+0  76024-4 0  9999",
    "TLE_LINE2": "2 50205  53.2188  20.8926 0001438  94.9143 265.2013 15.08840857219270",
    "COMMENT": "Grouped by shell and plane from TLE"
  },
  {
    "OBJECT_NAME": "STARLINK-3889",
    "OBJECT_ID": "22045A",
    "EPOCH": "2025-11-11T05:02:48.003648",
    "MEAN_MOTION": 15.08838378,
    "ECCENTRICITY": 0.0001463,
    "INCLINATION": 53.2184,
    "RA_OF_ASC_NODE": 20.9939,
    "ARG_OF_PERICENTER": 98.5108,
    "MEAN_ANOMALY": 261.605,
    "EPHEMERIS_TYPE": 0,
    "CLASSIFICATION_TYPE": "U",
    "NORAD_CAT_ID": 52331,
    "ELEMENT_SET_NO": 999,
    "REV_AT_EPOCH": 19775,
    "BSTAR": 6.12e-05,
    "MEAN_MOTION_DOT": 6.86e-06,
    "MEAN_MOTION_DDOT": 0.0,
    "TLE_LINE1": "1 52331U 22045A   25315.21027782  .00000686  00000+0  61200-4 0  9994",
    "TLE_LINE2": "2 52331  53.2184  20.9939 0001463  98.5108 261.6050 15.08838378197756",
    "COMMENT": "Grouped by shell and plane from TLE"
  },
  {
    "OBJECT_NAME": "STARLINK-3831",
    "OBJECT_ID": "22045B",
    "EPOCH": "2025-11-11T05:20:04.731936",
    "MEAN_MOTION": 15.0883903,
    "ECCENTRICITY": 0.0001027,
    "INCLINATION": 53.2185,
    "RA_OF_ASC_NODE": 20.9512,
    "ARG_OF_PERICENTER": 83.724,
    "MEAN_ANOMALY": 276.387,
    "EPHEMERIS_TYPE": 0,
    "CLASSIFICATION_TYPE": "U",
    "NORAD_CAT_ID": 52332,
    "ELEMENT_SET_NO": 999,
    "REV_AT_EPOCH": 19775,
    "BSTAR": 8.084400000000001e-05,
    "MEAN_MOTION_DOT": 9.99e-06,
    "MEAN_MOTION_DDOT": 0.0,
    "TLE_LINE1": "1 52332U 22045B   25315.22227699  .00000999  00000+0  80844-4 0  9997",
    "TLE_LINE2": "2 52332  53.2185  20.9512 0001027  83.7240 276.3870 15.08839030197753",
    "COMMENT": "Grouped by shell and plane from TLE"
  },
  {
    "OBJECT_NAME": "STARLINK-3847",
    "OBJECT_ID": "22045C",
    "EPOCH": "2025-11-11T06:48:46.574496",
    "MEAN_MOTION": 15.08863014,
    "ECCENTRICITY": 0.0001211,
    "INCLINATION": 53.2178,
    "RA_OF_ASC_NODE": 20.6642,
    "ARG_OF_PERICENTER": 88.8818,
    "MEAN_ANOMALY": 271.2313,
    "EPHEMERIS_TYPE": 0,
    "CLASSIFICATION_TYPE": "U",
    "NORAD_CAT_ID": 52333,
    "ELEMENT_SET_NO": 999,
    "REV_AT_EPOCH": 19775,
    "BSTAR": 0.0012534,
    "MEAN_MOTION_DOT": 0.00019728,
    "MEAN_MOTION_DDOT": 0.0,
    "TLE_LINE1": "1 52333U 22045C   25315.28387239  .00019728  00000+0  12534-2 0  9990",
    "TLE_LINE2": "2 52333  53.2178  20.6642 0001211  88.8818 271.2313 15.08863014197754",
    "COMMENT": "Grouped by shell and plane from TLE"
  },
  {
    "OBJECT_NAME": "STARLINK-3880",
    "OBJECT_ID": "22045D",
    "EPOCH": "2025-11-11T04:57:30.018816",
    "MEAN_MOTION": 15.08839713,
    "ECCENTRICITY": 0.0001287,
    "INCLINATION": 53.2183,
    "RA_OF_ASC_NODE": 21.01,
    "ARG_OF_PERICENTER": 86.1413,
    "MEAN_ANOMALY": 273.9726,
    "EPHEMERIS_TYPE": 0,
    "CLASSIFICATION_TYPE": "U",
    "NORAD_CAT_ID": 52334,
    "ELEMENT_SET_NO": 999,
    "REV_AT_EPOCH": 19774,
    "BSTAR": 0.0,
    "MEAN_MOTION_DOT": -5.45e-06,
    "MEAN_MOTION_DDOT": 0.0,
    "TLE_LINE1": "1 52334U 22045D   25315.20659744 -.00000545  00000+0 -16174-4 0  9991",
    "TLE_LINE2": "2 52334  53.2183  21.0100 0001287  86.1413 273.9726 15.08839713197745",
    "COMMENT": "Grouped by shell and plane from TLE"
  },
  {
    "OBJECT_NAME": "STARLINK-3814",
    "OBJECT_ID": "22045E",
    "EPOCH": "2025-11-11T04:52:12.242208",
    "MEAN_MOTION": 15.08839763,
    "ECCENTRICITY": 0.0001187,
    "INCLINATION": 53.2177,
    "RA_OF_ASC_NODE": 21.0279,
    "ARG_OF_PERICENTER": 87.3029,
    "MEAN_ANOMALY": 272.8099,
    "EPHEMERIS_TYPE": 0,
    "CLASSIFICATION_TYPE": "U",
    "NORAD_CAT_ID": 52335,
    "ELEMENT_SET_NO": 999,
    "REV_AT_EPOCH": 19775,
    "BSTAR": 0.00022523,
    "MEAN_MOTION_DOT": 3.298e-05,
    "MEAN_MOTION_DDOT": 0.0,
    "TLE_LINE1": "1 52335U 22045E   25315.20291947  .00003298  00000+0  22523-3 0  9999",
    "TLE_LINE2": "2 52335  53.2177  21.0279 0001187  87.3029 272.8099 15.08839763197758",
    "COMMENT": "Grouped by shell and plane from TLE"
  },
  {
    "OBJECT_NAME": "STARLINK-3823",
    "OBJECT_ID": "22045F",
    "EPOCH": "2025-11-11T04:15:04.533120",
    "MEAN_MOTION": 15.08839289,
    "ECCENTRICITY": 0.0001739,
    "INCLINATION": 53.2195,
    "RA_OF_ASC_NODE": 20.9384,
    "ARG_OF_PERICENTER": 87.4342,
    "MEAN_ANOMALY": 272.6849,
    "EPHEMERIS_TYPE": 0,
    "CLASSIFICATION_TYPE": "U",
    "NORAD_CAT_ID": 52336,
    "ELEMENT_SET_NO": 999,
    "REV_AT_EPOCH": 19775,
    "BSTAR": 7.324800000000001e-06,
    "MEAN_MOTION_DOT": -1.72e-06,
    "MEAN_MOTION_DDOT": 0.0,
    "TLE_LINE1": "1 52336U 22045F   25315.17713580 -.00000172  00000+0  73248-5 0  9999",
    "TLE_LINE2": "2 52336  53.2195  20.9384 0001739  87.4342 272.6849 15.08839289197750",
    "COMMENT": "Grouped by shell and plane from TLE"
  },
  {
    "OBJECT_NAME": "STARLINK-3797",
    "OBJECT_ID": "22045G",
    "EPOCH": "2025-11-11T05:08:05.987616",
    "MEAN_MOTION": 15.08839747,
    "ECCENTRICITY": 0.0001411,
    "INCLINATION": 53.2191,
    "RA_OF_ASC_NODE": 20.9775,
    "ARG_OF_PERICENTER": 89.8996,
    "MEAN_ANOMALY": 270.2158,
    "EPHEMERIS_TYPE": 0,
    "CLASSIFICATION_TYPE": "U",
    "NORAD_CAT_ID": 52337,
    "ELEMENT_SET_NO": 999,
    "REV_AT_EPOCH": 19775,
    "BSTAR": 7.6266e-05,
    "MEAN_MOTION_DOT": 9.26e-06,
    "MEAN_MOTION_DDOT": 0.0,
    "TLE_LINE1": "1 52337U 22045G   25315.21395819  .00000926  00000+0  76266-4 0  9994",
    "TLE_LINE2": "2 52337  53.2191  20.9775 0001411  89.8996 270.2158 15.08839747197755",
    "COMMENT": "Grouped by shell and plane from TLE"
  },
  {
    "OBJECT_NAME": "STARLINK-3792",
    "OBJECT_ID": "22045J",
    "EPOCH": "2025-11-11T05:18:38.159136",
    "MEAN_MOTION": 15.08839058,
    "ECCENTRICITY": 0.000103,
    "INCLINATION": 53.2183,
    "RA_OF_ASC_NODE": 20.5887,
    "ARG_OF_PERICENTER": 86.2339,
    "MEAN_ANOMALY": 273.8771,
    "EPHEMERIS_TYPE": 0,
    "CLASSIFICATION_TYPE": "U",
    "NORAD_CAT_ID": 52339,
    "ELEMENT_SET_NO": 999,
    "REV_AT_EPOCH": 19776,
    "BSTAR": 1.7690000000000002e-05,
    "MEAN_MOTION_DOT": -6e-08,
    "MEAN_MOTION_DDOT": 0.0,
    "TLE_LINE1": "1 52339U 22045J   25315.22127499 -.00000006  00000+0  17690-4 0  9990",
    "TLE_LINE2": "2 52339  53.2183  20.5887 0001030  86.2339 273.8771 15.08839058197763",
    "COMMENT": "Grouped by shell and plane from TLE"
  },
  {
    "OBJECT_NAME": "STARLINK-3843",
    "OBJECT_ID": "22045L",
    "EPOCH": "2025-11-11T04:31:01.199712",
    "MEAN_MOTION": 15.08826997,
    "ECCENTRICITY": 0.0001947,
    "INCLINATION": 53.219,
    "RA_OF_ASC_NODE": 21.0448,
    "ARG_OF_PERICENTER": 82.7798,
    "MEAN_ANOMALY": 277.3416,
    "EPHEMERIS_TYPE": 0,
    "CLASSIFICATION_TYPE": "U",
    "NORAD_CAT_ID": 52341,
    "ELEMENT_SET_NO": 999,
    "REV_AT_EPOCH": 19775,
    "BSTAR": 0.0,
    "MEAN_MOTION_DOT": -4.149e-05,
    "MEAN_MOTION_DDOT": 0.0,
    "TLE_LINE1": "1 52341U 22045L   25315.18820833 -.00004149  00000+0 -24281-3 0  9996",
    "TLE_LINE2": "2 52341  53.2190  21.0448 0001947  82.7798 277.3416 15.08826997197752",
    "COMMENT": "Grouped by shell and plane from TLE"
  },
  {
    "OBJECT_NAME": "STARLINK-3849",
    "OBJECT_ID": "22045N",
    "EPOCH": "2025-11-10T10:19:22.082880",
    "MEAN_MOTION": 15.08850715,
    "ECCENTRICITY": 0.0001357,
    "INCLINATION": 53.2187,
    "RA_OF_ASC_NODE": 24.4968,
    "ARG_OF_PERICENTER": 88.0981,
    "MEAN_ANOMALY": 272.0167,
    "EPHEMERIS_TYPE": 0,
    "CLASSIFICATION_TYPE": "U",
    "NORAD_CAT_ID": 52343,
    "ELEMENT_SET_NO": 999,
    "REV_AT_EPOCH": 19764,
    "BSTAR": 0.0,
    "MEAN_MOTION_DOT": -4.397e-05,
    "MEAN_MOTION_DDOT": 0.0,
    "TLE_LINE1": "1 52343U 22045N   25314.43011670 -.00004397  00000+0 -25823-3 0  9994",
    "TLE_LINE2": "2 52343  53.2187  24.4968 0001357  88.0981 272.0167 15.08850715197640",
    "COMMENT": "Grouped by shell and plane from TLE"
  },
  {
    "OBJECT_NAME": "STARLINK-5120",
    "OBJECT_ID": "22125U",
    "EPOCH": "2025-11-11T04:43:35.774112",
    "MEAN_MOTION": 15.08839701,
    "ECCENTRICITY": 0.0001731,
    "INCLINATION": 53.2181,
    "RA_OF_ASC_NODE": 26.091,
    "ARG_OF_PERICENTER": 92.0829,
    "MEAN_ANOMALY": 268.0361,
    "EPHEMERIS_TYPE": 0,
    "CLASSIFICATION_TYPE": "U",
    "NORAD_CAT_ID": 53982,
    "ELEMENT_SET_NO": 999,
    "REV_AT_EPOCH": 17156,
    "BSTAR": 0.00053735,
    "MEAN_MOTION_DOT": 8.274e-05,
    "MEAN_MOTION_DDOT": 0.0,
    "TLE_LINE1": "1 53982U 22125U   25315.19694183  .00008274  00000+0  53735-3 0  9992",
    "TLE_LINE2": "2 53982  53.2181  26.0910 0001731  92.0829 268.0361 15.08839701171567",
    "COMMENT": "Grouped by shell and plane from TLE"
  }
]